*******************************************************************************
Ephemeris / WWW_USER Fri Mar  7 10:40:51 2025 Pasadena, USA      / Horizons    
*******************************************************************************
Target body name: (2018 TC)                       {source: JPL#10}
Center body name: Earth (399)                     {source: DE441}
Center-site name: Mauna Kea
*******************************************************************************
Start time      : A.D. 2018-Aug-27 04:51:00.0000 UT      
Stop  time      : A.D. 2018-Aug-27 15:56:00.0000 UT      
Step-size       : 1 minutes
*******************************************************************************
Target pole/equ : undefined
Target radii    : undefined                                                    
Center geodetic : 204.5278, 19.8260847, 4.21024   {E-lon(deg),Lat(deg),Alt(km)}
Center cylindric: 204.5278, 6006.35451, 2151.0229 {E-lon(deg),Dxy(km),Dz(km)}
Center pole/equ : ITRF93                          {East-longitude positive}
Center radii    : 6378.137, 6378.137, 6356.752 km {Equator_a, b, pole_c}       
Target primary  : Sun
Vis. interferer : MOON (R_eq= 1737.400) km        {source: DE441}
Rel. light bend : Sun                             {source: DE441}
Rel. lght bnd GM: 1.3271E+11 km^3/s^2                                          
Small-body perts: Yes                             {source: SB441-N16}
Atmos refraction: NO (AIRLESS)
RA format       : HMS
Time format     : CAL 
Calendar mode   : Mixed Julian/Gregorian
RTS-only print  : NO       
EOP file        : eop.250306.p250602                                           
EOP coverage    : DATA-BASED 1962-JAN-20 TO 2025-MAR-06. PREDICTS-> 2025-JUN-01
Units conversion: 1 au= 149597870.700 km, c= 299792.458 km/s, 1 day= 86400.0 s 
Table cut-offs 1: Elevation (-90.0deg=NO ),Airmass (>38.000=NO), Daylight (YES)
Table cut-offs 2: Solar elongation (  0.0,180.0=NO ),Local Hour Angle( 0.0=NO )
Table cut-offs 3: RA/DEC angular rate (     0.0=NO )                           
*******************************************************************************
Initial IAU76/J2000 heliocentric ecliptic osculating elements (au, days, deg.):
  EPOCH=  2458399.5 ! 2018-Oct-08.00 (TDB)         Residual RMS= .20211        
   EC= .2253304451868516   QR= .9525668516843322   TP= 2458354.2554697809      
   OM= 188.9146441926015   W=  135.2493409557404   IN= 3.631837316097226       
  Equivalent ICRF heliocentric cartesian coordinates (au, au/d):
   X= 9.874490534016482E-01  Y= 2.414303737329446E-01  Z= 9.746991415829437E-02
  VX=-1.955204385424240E-03 VY= 1.722364762632024E-02 VZ= 6.197883797821973E-03
Asteroid physical parameters (km, seconds, rotational period in hours):        
   GM= n.a.                RAD= n.a.               ROTPER= n.a.                
   H= 26.6                 G= .150                 B-V= n.a.                   
                           ALBEDO= n.a.            STYP= n.a.                  
*******************************************************************************
 Date__(UT)__HR:MN     R.A._________(ICRF)_________DEC
******************************************************
$$SOE
 2018-Aug-27 06:54  m  14 01 47.773951 +04 36 49.11098
 2018-Aug-27 06:55  m  14 01 47.819576 +04 36 49.08546
 2018-Aug-27 06:56  m  14 01 47.865286 +04 36 49.05992
 2018-Aug-27 06:57  m  14 01 47.911083 +04 36 49.03435
 2018-Aug-27 06:58  m  14 01 47.956966 +04 36 49.00876
 2018-Aug-27 06:59  m  14 01 48.002935 +04 36 48.98314
 2018-Aug-27 07:00  m  14 01 48.048990 +04 36 48.95749
 2018-Aug-27 07:01  m  14 01 48.095132 +04 36 48.93182
 2018-Aug-27 07:02  m  14 01 48.141361 +04 36 48.90613
 2018-Aug-27 07:03  m  14 01 48.187676 +04 36 48.88041
 2018-Aug-27 07:04  m  14 01 48.234078 +04 36 48.85467
 2018-Aug-27 07:05  m  14 01 48.280566 +04 36 48.82891
 2018-Aug-27 07:06  m  14 01 48.327142 +04 36 48.80313
 2018-Aug-27 07:07  m  14 01 48.373805 +04 36 48.77732
 2018-Aug-27 07:08  m  14 01 48.420555 +04 36 48.75149
 2018-Aug-27 07:09  m  14 01 48.467392 +04 36 48.72564
 2018-Aug-27 07:10  m  14 01 48.514317 +04 36 48.69977
 2018-Aug-27 07:11  m  14 01 48.561329 +04 36 48.67389
 2018-Aug-27 07:12  m  14 01 48.608429 +04 36 48.64798
 2018-Aug-27 07:13  m  14 01 48.655617 +04 36 48.62205
 2018-Aug-27 07:14  m  14 01 48.702892 +04 36 48.59610
 2018-Aug-27 07:15  m  14 01 48.750255 +04 36 48.57014
 2018-Aug-27 07:16  m  14 01 48.797706 +04 36 48.54416
 2018-Aug-27 07:17  m  14 01 48.845245 +04 36 48.51816
 2018-Aug-27 07:18  m  14 01 48.892872 +04 36 48.49214
 2018-Aug-27 07:19  m  14 01 48.940588 +04 36 48.46611
 2018-Aug-27 07:20  m  14 01 48.988391 +04 36 48.44006
 2018-Aug-27 07:21  m  14 01 49.036283 +04 36 48.41400
 2018-Aug-27 07:22  m  14 01 49.084264 +04 36 48.38792
 2018-Aug-27 07:23  m  14 01 49.132333 +04 36 48.36183
 2018-Aug-27 07:24  m  14 01 49.180490 +04 36 48.33572
 2018-Aug-27 07:25  m  14 01 49.228737 +04 36 48.30960
 2018-Aug-27 07:26  m  14 01 49.277072 +04 36 48.28346
 2018-Aug-27 07:27  m  14 01 49.325495 +04 36 48.25732
 2018-Aug-27 07:28  m  14 01 49.374008 +04 36 48.23116
 2018-Aug-27 07:29  m  14 01 49.422610 +04 36 48.20499
 2018-Aug-27 07:30  m  14 01 49.471300 +04 36 48.17881
 2018-Aug-27 07:31  m  14 01 49.520080 +04 36 48.15262
 2018-Aug-27 07:32  m  14 01 49.568949 +04 36 48.12641
 2018-Aug-27 07:33  m  14 01 49.617907 +04 36 48.10020
 2018-Aug-27 07:34  m  14 01 49.666954 +04 36 48.07398
 2018-Aug-27 07:35  m  14 01 49.716090 +04 36 48.04775
 2018-Aug-27 07:36  m  14 01 49.765316 +04 36 48.02151
 2018-Aug-27 07:37  m  14 01 49.814631 +04 36 47.99526
 2018-Aug-27 07:38  m  14 01 49.864036 +04 36 47.96901
 2018-Aug-27 07:39  m  14 01 49.913530 +04 36 47.94275
 2018-Aug-27 07:40  m  14 01 49.963114 +04 36 47.91648
 2018-Aug-27 07:41  m  14 01 50.012788 +04 36 47.89020
 2018-Aug-27 07:42  m  14 01 50.062551 +04 36 47.86392
 2018-Aug-27 07:43  m  14 01 50.112403 +04 36 47.83764
 2018-Aug-27 07:44  m  14 01 50.162346 +04 36 47.81135
 2018-Aug-27 07:45  m  14 01 50.212378 +04 36 47.78505
 2018-Aug-27 07:46  m  14 01 50.262500 +04 36 47.75875
 2018-Aug-27 07:47  m  14 01 50.312712 +04 36 47.73245
 2018-Aug-27 07:48  m  14 01 50.363013 +04 36 47.70615
 2018-Aug-27 07:49  m  14 01 50.413405 +04 36 47.67984
 2018-Aug-27 07:50  m  14 01 50.463886 +04 36 47.65353
 2018-Aug-27 07:51  m  14 01 50.514458 +04 36 47.62722
 2018-Aug-27 07:52  m  14 01 50.565119 +04 36 47.60091
 2018-Aug-27 07:53  m  14 01 50.615870 +04 36 47.57460
 2018-Aug-27 07:54  m  14 01 50.666712 +04 36 47.54829
 2018-Aug-27 07:55  m  14 01 50.717643 +04 36 47.52198
 2018-Aug-27 07:56  m  14 01 50.768665 +04 36 47.49566
 2018-Aug-27 07:57  m  14 01 50.819776 +04 36 47.46936
 2018-Aug-27 07:58  m  14 01 50.870978 +04 36 47.44305
 2018-Aug-27 07:59  m  14 01 50.922270 +04 36 47.41674
 2018-Aug-27 08:00  m  14 01 50.973652 +04 36 47.39044
 2018-Aug-27 08:01  m  14 01 51.025124 +04 36 47.36414
 2018-Aug-27 08:02  m  14 01 51.076686 +04 36 47.33784
 2018-Aug-27 08:03  m  14 01 51.128339 +04 36 47.31155
 2018-Aug-27 08:04  m  14 01 51.180081 +04 36 47.28527
 2018-Aug-27 08:05  m  14 01 51.231914 +04 36 47.25898
 2018-Aug-27 08:06  m  14 01 51.283837 +04 36 47.23271
 2018-Aug-27 08:07  m  14 01 51.335850 +04 36 47.20644
 2018-Aug-27 08:08  m  14 01 51.387953 +04 36 47.18017
 2018-Aug-27 08:09  m  14 01 51.440147 +04 36 47.15392
 2018-Aug-27 08:10  m  14 01 51.492430 +04 36 47.12767
 2018-Aug-27 08:11  m  14 01 51.544804 +04 36 47.10143
 2018-Aug-27 08:12  m  14 01 51.597268 +04 36 47.07519
 2018-Aug-27 08:13  m  14 01 51.649822 +04 36 47.04897
 2018-Aug-27 08:14  m  14 01 51.702466 +04 36 47.02275
 2018-Aug-27 08:15  m  14 01 51.755200 +04 36 46.99655
 2018-Aug-27 08:16  m  14 01 51.808024 +04 36 46.97035
 2018-Aug-27 08:17  m  14 01 51.860938 +04 36 46.94417
 2018-Aug-27 08:18  m  14 01 51.913943 +04 36 46.91799
 2018-Aug-27 08:19  m  14 01 51.967037 +04 36 46.89183
 2018-Aug-27 08:20  m  14 01 52.020222 +04 36 46.86568
 2018-Aug-27 08:21  s  14 01 52.073496 +04 36 46.83955
 2018-Aug-27 08:22  m  14 01 52.126860 +04 36 46.81342
 2018-Aug-27 08:23  m  14 01 52.180315 +04 36 46.78731
 2018-Aug-27 08:24  m  14 01 52.233859 +04 36 46.76122
 2018-Aug-27 08:25  m  14 01 52.287493 +04 36 46.73513
 2018-Aug-27 08:26  m  14 01 52.341217 +04 36 46.70907
 2018-Aug-27 08:27  m  14 01 52.395031 +04 36 46.68302
 2018-Aug-27 08:28  m  14 01 52.448934 +04 36 46.65698
 2018-Aug-27 08:29  m  14 01 52.502927 +04 36 46.63096
 2018-Aug-27 08:30  m  14 01 52.557010 +04 36 46.60496
 2018-Aug-27 08:31  m  14 01 52.611183 +04 36 46.57897
 2018-Aug-27 08:32  m  14 01 52.665445 +04 36 46.55301
 2018-Aug-27 08:33  m  14 01 52.719797 +04 36 46.52706
 2018-Aug-27 08:34  m  14 01 52.774238 +04 36 46.50113
 2018-Aug-27 08:35  m  14 01 52.828769 +04 36 46.47521
 2018-Aug-27 08:36  m  14 01 52.883389 +04 36 46.44932
 2018-Aug-27 08:37  m  14 01 52.938098 +04 36 46.42345
 2018-Aug-27 08:38  m  14 01 52.992897 +04 36 46.39760
 2018-Aug-27 08:39  m  14 01 53.047785 +04 36 46.37177
 2018-Aug-27 08:40  m  14 01 53.102763 +04 36 46.34596
 2018-Aug-27 08:41  m  14 01 53.157829 +04 36 46.32017
 2018-Aug-27 08:42  m  14 01 53.212985 +04 36 46.29441
 2018-Aug-27 08:43  m  14 01 53.268229 +04 36 46.26867
 2018-Aug-27 08:44  m  14 01 53.323563 +04 36 46.24295
 2018-Aug-27 08:45  m  14 01 53.378985 +04 36 46.21725
 2018-Aug-27 08:46  m  14 01 53.434496 +04 36 46.19158
 2018-Aug-27 08:47  m  14 01 53.490096 +04 36 46.16594
 2018-Aug-27 08:48  m  14 01 53.545785 +04 36 46.14032
 2018-Aug-27 08:49  m  14 01 53.601562 +04 36 46.11472
 2018-Aug-27 08:50  m  14 01 53.657428 +04 36 46.08915
 2018-Aug-27 08:51  m  14 01 53.713382 +04 36 46.06361
 2018-Aug-27 08:52  m  14 01 53.769425 +04 36 46.03809
 2018-Aug-27 08:53  m  14 01 53.825555 +04 36 46.01261
 2018-Aug-27 08:54  m  14 01 53.881775 +04 36 45.98715
 2018-Aug-27 08:55  m  14 01 53.938082 +04 36 45.96171
 2018-Aug-27 08:56  m  14 01 53.994477 +04 36 45.93631
